ORBCOMM FM33            
1 25983U 99065D   24238.94707304  .00002235  00000+0  77530-3 0  9995
2 25983  45.0295 320.9201 0007411   1.4236 358.6633 14.38202308293537
ORBCOMM FM36            
1 25984U 99065E   24238.93433975  .00003002  00000+0  10686-2 0  9996
2 25984  45.0402  48.2964 0003987 236.9090 123.1376 14.36149509292530
ORBCOMM FM35            
1 25985U 99065F   24238.94328197  .00002189  00000+0  80158-3 0  9994
2 25985  45.0403  51.3057 0002262 357.1304   2.9531 14.35570990292526
ORBCOMM FM34            
1 25986U 99065G   24238.91548607  .00002095  00000+0  76944-3 0  9996
2 25986  45.0397  51.9870 0003203 287.4525  72.5972 14.35561239292443
ORBCOMM FM38            
1 33060U 08031A   24238.59041000  .00004076  00000+0  58186-3 0  9999
2 33060  48.4399 281.2149 0005402 221.9731 138.0769 14.78386194870969
ORBCOMM FM41            
1 33061U 08031B   24238.89088691  .00003478  00000+0  50402-3 0  9998
2 33061  48.4437 286.6674 0004413 210.5465 319.7440 14.78106518870508
ORBCOMM FM29            
1 33062U 08031C   24239.46220332  .00003695  00000+0  53417-3 0  9993
2 33062  48.4392 291.9893 0006240 208.4611 165.4202 14.78069959870891
ORBCOMM FM39            
1 33063U 08031D   24239.50172875  .00003514  00000+0  52249-3 0  9999
2 33063  48.4411 313.1753 0006915 181.2718 178.8179 14.76972259870616
